{
  "type": "FeatureCollection",
  "features": [
    {
      "type": "Feature",
      "geometry": {
        "type": "Polygon",
        "coordinates": [
          [
            [
              19.05715,
              47.49685
            ],
            [
              19.05655,
              47.49795
            ],
            [
              19.0569,
              47.49915
            ],
            [
              19.0592,
              47.49925
            ],
            [
              19.06255,
              47.50135
            ],
            [
              19.0654,
              47.50185
            ],
            [
              19.0672,
              47.5011
            ],
            [
              19.06735,
              47.4998
            ],
            [
              19.06725,
              47.4977
            ],
            [
              19.0669,
              47.49615
            ],
            [
              19.0642,
              47.4957
            ],
            [
              19.0618,
              47.49585
            ],
            [
              19.0607,
              47.49615
            ],
            [
              19.0589,
              47.4964
            ],
            [
              19.05715,
              47.49685
            ]
          ]
        ]
      },
      "properties": {
        "id": "pest-ghetto",
        "name": "Pest ghetto (District VII)",
        "areaKm2": 0.3
      }
    },
    {
      "type": "Feature",
      "geometry": {
        "type": "Polygon",
        "coordinates": [
          [
            [
              19.0468,
              47.5114
            ],
            [
              19.0464,
              47.5181
            ],
            [
              19.0509,
              47.5187
            ],
            [
              19.0545,
              47.5184
            ],
            [
              19.0566,
              47.5158
            ],
            [
              19.0562,
              47.5117
            ],
            [
              19.0508,
              47.5112
            ],
            [
              19.0468,
              47.5114
            ]
          ]
        ]
      },
      "properties": {
        "id": "international-ghetto",
        "name": "International ghetto (\u00dajlip\u00f3tv\u00e1ros)",
        "houses": "~120 protected houses"
      }
    }
  ]
}